{
  "type": "FeatureCollection",
  "features": [
    {
      "type": "Feature",
      "properties": {
        "norad_id": 66330,
        "name": "STARLINK-35512",
        "group": "last-30-days",
        "lat": 42.68983485680328,
        "lon": 131.8968730513323,
        "alt_km": 438.45118565068606,
        "timestamp": "2025-12-04T09:47:36.300493+00:00",
        "meta_object_name": "STARLINK-35512",
        "meta_object_id": "2025-253M",
        "meta_epoch": "2025-12-03T22:00:03.000096",
        "meta_mean_motion": 15.40737673,
        "meta_eccentricity": 0.00011126,
        "meta_inclination": 43.0009,
        "meta_ra_of_asc_node": 36.5672,
        "meta_arg_of_pericenter": 245.0251,
        "meta_mean_anomaly": 2.5131,
        "meta_ephemeris_type": 0,
        "meta_classification_type": "U",
        "meta_norad_cat_id": 66330,
        "meta_element_set_no": 999,
        "meta_rev_at_epoch": 551,
        "meta_bstar": -0.0049878066,
        "meta_mean_motion_dot": -0.00203449,
        "meta_mean_motion_ddot": 0,
        "tle_line1": "1 66330U 25253M   25337.91670139 -.00203449  00000+0 -49878-2 0  9992",
        "tle_line2": "2 66330  43.0009  36.5672 0001112 245.0251   2.5131 15.40737673  5515"
      },
      "geometry": {
        "type": "Point",
        "coordinates": [
          131.8968730513323,
          42.68983485680328
        ]
      }
    },
    {
      "type": "Feature",
      "properties": {
        "norad_id": 66331,
        "name": "STARLINK-35257",
        "group": "last-30-days",
        "lat": -34.97031190497002,
        "lon": -97.96759222755048,
        "alt_km": 416.7374062447525,
        "timestamp": "2025-12-04T09:47:36.300504+00:00",
        "meta_object_name": "STARLINK-35257",
        "meta_object_id": "2025-253N",
        "meta_epoch": "2025-12-03T12:40:46.235424",
        "meta_mean_motion": 15.50612497,
        "meta_eccentricity": 0.00017622,
        "meta_inclination": 42.9995,
        "meta_ra_of_asc_node": 38.5379,
        "meta_arg_of_pericenter": 289.6299,
        "meta_mean_anomaly": 70.4371,
        "meta_ephemeris_type": 0,
        "meta_classification_type": "U",
        "meta_norad_cat_id": 66331,
        "meta_element_set_no": 999,
        "meta_rev_at_epoch": 550,
        "meta_bstar": 0.0018759457,
        "meta_mean_motion_dot": 0.00111424,
        "meta_mean_motion_ddot": 0,
        "tle_line1": "1 66331U 25253N   25337.52831291  .00111424  00000+0  18759-2 0  9991",
        "tle_line2": "2 66331  42.9995  38.5379 0001762 289.6299  70.4371 15.50612497  5507"
      },
      "geometry": {
        "type": "Point",
        "coordinates": [
          -97.96759222755048,
          -34.97031190497002
        ]
      }
    },
    {
      "type": "Feature",
      "properties": {
        "norad_id": 66332,
        "name": "STARLINK-35322",
        "group": "last-30-days",
        "lat": -5.298242912760499,
        "lon": -140.77713818779114,
        "alt_km": 438.21547693276443,
        "timestamp": "2025-12-04T09:47:36.300517+00:00",
        "meta_object_name": "STARLINK-35322",
        "meta_object_id": "2025-253P",
        "meta_epoch": "2025-12-03T15:54:04.667328",
        "meta_mean_motion": 15.43882577,
        "meta_eccentricity": 0.0001814,
        "meta_inclination": 42.9998,
        "meta_ra_of_asc_node": 37.8272,
        "meta_arg_of_pericenter": 5.7146,
        "meta_mean_anomaly": 354.3732,
        "meta_ephemeris_type": 0,
        "meta_classification_type": "U",
        "meta_norad_cat_id": 66332,
        "meta_element_set_no": 999,
        "meta_rev_at_epoch": 552,
        "meta_bstar": -0.0089578,
        "meta_mean_motion_dot": -0.00395993,
        "meta_mean_motion_ddot": 0,
        "tle_line1": "1 66332U 25253P   25337.66255402 -.00395993  00000+0 -89578-2 0  9995",
        "tle_line2": "2 66332  42.9998  37.8272 0001814   5.7146 354.3732 15.43882577  5528"
      },
      "geometry": {
        "type": "Point",
        "coordinates": [
          -140.77713818779114,
          -5.298242912760499
        ]
      }
    },
    {
      "type": "Feature",
      "properties": {
        "norad_id": 66333,
        "name": "STARLINK-35400",
        "group": "last-30-days",
        "lat": -34.13777958764771,
        "lon": -99.92850895720302,
        "alt_km": 415.8210607750616,
        "timestamp": "2025-12-04T09:47:36.300528+00:00",
        "meta_object_name": "STARLINK-35400",
        "meta_object_id": "2025-253Q",
        "meta_epoch": "2025-12-03T12:41:15.457632",
        "meta_mean_motion": 15.50633816,
        "meta_eccentricity": 0.0002479,
        "meta_inclination": 43.0028,
        "meta_ra_of_asc_node": 38.5379,
        "meta_arg_of_pericenter": 261.0989,
        "meta_mean_anomaly": 98.959,
        "meta_ephemeris_type": 0,
        "meta_classification_type": "U",
        "meta_norad_cat_id": 66333,
        "meta_element_set_no": 999,
        "meta_rev_at_epoch": 550,
        "meta_bstar": 0.0019355,
        "meta_mean_motion_dot": 0.00115116,
        "meta_mean_motion_ddot": 0,
        "tle_line1": "1 66333U 25253Q   25337.52865113  .00115116  00000+0  19355-2 0  9998",
        "tle_line2": "2 66333  43.0028  38.5379 0002479 261.0989  98.9590 15.50633816  5500"
      },
      "geometry": {
        "type": "Point",
        "coordinates": [
          -99.92850895720302,
          -34.13777958764771
        ]
      }
    },
    {
      "type": "Feature",
      "properties": {
        "norad_id": 66334,
        "name": "STARLINK-35407",
        "group": "last-30-days",
        "lat": 29.60581090687377,
        "lon": 176.07158954435764,
        "alt_km": 439.26773520481765,
        "timestamp": "2025-12-04T09:47:36.300539+00:00",
        "meta_object_name": "STARLINK-35407",
        "meta_object_id": "2025-253R",
        "meta_epoch": "2025-12-04T04:32:58.300224",
        "meta_mean_motion": 15.40796899,
        "meta_eccentricity": 6.11e-05,
        "meta_inclination": 42.9992,
        "meta_ra_of_asc_node": 34.9051,
        "meta_arg_of_pericenter": 285.6311,
        "meta_mean_anomaly": 74.4478,
        "meta_ephemeris_type": 0,
        "meta_classification_type": "U",
        "meta_norad_cat_id": 66334,
        "meta_element_set_no": 999,
        "meta_rev_at_epoch": 560,
        "meta_bstar": 0.0029412,
        "meta_mean_motion_dot": 0.00124991,
        "meta_mean_motion_ddot": 0,
        "tle_line1": "1 66334U 25253R   25338.18956366  .00124991  00000+0  29412-2 0  9999",
        "tle_line2": "2 66334  42.9992  34.9051 0000611 285.6311  74.4478 15.40796899  5608"
      },
      "geometry": {
        "type": "Point",
        "coordinates": [
          176.07158954435764,
          29.60581090687377
        ]
      }
    },
    {
      "type": "Feature",
      "properties": {
        "norad_id": 66335,
        "name": "STARLINK-35417",
        "group": "last-30-days",
        "lat": 35.623806204280605,
        "lon": 84.08286884141586,
        "alt_km": 439.47356033246706,
        "timestamp": "2025-12-04T09:47:36.300550+00:00",
        "meta_object_name": "STARLINK-35417",
        "meta_object_id": "2025-253S",
        "meta_epoch": "2025-12-04T00:00:02.000160",
        "meta_mean_motion": 15.40725454,
        "meta_eccentricity": 0.0001523,
        "meta_inclination": 43.0009,
        "meta_ra_of_asc_node": 36.1763,
        "meta_arg_of_pericenter": 254.3794,
        "meta_mean_anomaly": 58.4875,
        "meta_ephemeris_type": 0,
        "meta_classification_type": "U",
        "meta_norad_cat_id": 66335,
        "meta_element_set_no": 999,
        "meta_rev_at_epoch": 552,
        "meta_bstar": -0.0019018,
        "meta_mean_motion_dot": -0.00078998,
        "meta_mean_motion_ddot": 0,
        "tle_line1": "1 66335U 25253S   25338.00002315 -.00078998  00000+0 -19018-2 0  9995",
        "tle_line2": "2 66335  43.0009  36.1763 0001523 254.3794  58.4875 15.40725454  5528"
      },
      "geometry": {
        "type": "Point",
        "coordinates": [
          84.08286884141586,
          35.623806204280605
        ]
      }
    },
    {
      "type": "Feature",
      "properties": {
        "norad_id": 66336,
        "name": "STARLINK-35404",
        "group": "last-30-days",
        "lat": -35.837502619059244,
        "lon": -95.80121914837983,
        "alt_km": 416.8889601957799,
        "timestamp": "2025-12-04T09:47:36.300561+00:00",
        "meta_object_name": "STARLINK-35404",
        "meta_object_id": "2025-253T",
        "meta_epoch": "2025-12-03T12:40:16.785984",
        "meta_mean_motion": 15.50633101,
        "meta_eccentricity": 8.71e-05,
        "meta_inclination": 42.9975,
        "meta_ra_of_asc_node": 38.5345,
        "meta_arg_of_pericenter": 265.211,
        "meta_mean_anomaly": 94.865,
        "meta_ephemeris_type": 0,
        "meta_classification_type": "U",
        "meta_norad_cat_id": 66336,
        "meta_element_set_no": 999,
        "meta_rev_at_epoch": 550,
        "meta_bstar": 0.0017646328,
        "meta_mean_motion_dot": 0.00104778,
        "meta_mean_motion_ddot": 0,
        "tle_line1": "1 66336U 25253T   25337.52797206  .00104778  00000+0  17646-2 0  9991",
        "tle_line2": "2 66336  42.9975  38.5345 0000871 265.2110  94.8650 15.50633101  5500"
      },
      "geometry": {
        "type": "Point",
        "coordinates": [
          -95.80121914837983,
          -35.837502619059244
        ]
      }
    }
  ]
}